STARLINK-36771          
1 67928U 26036AA  26073.91668981 -.01911903  00000+0 -21297-1 0  9992
2 67928  42.9993 217.8369 0001404 285.8090 208.5485 15.65103730  4486
STARLINK-36809          
1 67929U 26036AB  26073.91668981 -.01912097  00000+0 -21279-1 0  9998
2 67929  42.9990 217.8142 0001467 286.7948 216.4615 15.65127248  4487
STARLINK-36865          
1 67930U 26036AC  26073.91668981 -.01914527  00000+0 -17628-1 0  9993
2 67930  42.9997 217.6486 0001382 277.8261 291.8280 15.69731093  4488
STARLINK-36781          
1 67931U 26036AD  26073.91668981 -.01917323  00000+0 -18101-1 0  9998
2 67931  42.9994 217.6755 0001291 278.3855 280.5546 15.69139226  4489
STARLINK-36301          
1 67932U 26037A   26073.94527581  .00594514  00000+0  26233-2 0  9999
2 67932  42.9975 166.3682 0002882  54.0523 306.0615 15.82125543  4085
STARLINK-36852          
1 67933U 26037B   26073.91668981 -.01948422  00000+0 -13092-1 0  9999
2 67933  42.9994 166.5553 0001313 280.5447 272.0982 15.77540683  4039
STARLINK-36861          
1 67934U 26037C   26073.62808993  .00496700  00000+0  22241-2 0  9998
2 67934  42.9977 168.2912 0001653 275.3765  84.6918 15.82059687  4032
STARLINK-36860          
1 67935U 26037D   26073.69046887  .00306466  00000+0  13985-2 0  9996
2 67935  42.9974 167.8983 0001564 303.6720  56.4003 15.82145960  4043
STARLINK-36848          
1 67936U 26037E   26073.68899729 -.00144226  00000+0 -69878-3 0  9996
2 67936  42.9972 167.8849 0001955   0.4471 359.6402 15.81862945  4041
STARLINK-36370          
1 67937U 26037F   26073.68972069  .00270175  00000+0  12390-2 0  9993
2 67937  42.9979 167.8928 0001579 263.6893  96.3799 15.82135579  4041
STARLINK-36371          
1 67938U 26037G   26073.62509234  .00279427  00000+0  12803-2 0  9996
2 67938  42.9978 168.2664 0001353 282.9086  77.1634 15.82131193  4033
STARLINK-36246          
1 67939U 26037H   26073.68747298  .00347735  00000+0  15771-2 0  9992
2 67939  42.9978 167.8740 0001411 273.0125  87.0585 15.82170757  4049
