CCSDS_OMM_VERS = 2.0
CREATION_DATE  = 
ORIGINATOR     = 

OBJECT_NAME    = STARLINK-36771
OBJECT_ID      = 2026-036AA
CENTER_NAME    = EARTH
REF_FRAME      = TEME
TIME_SYSTEM    = UTC
MEAN_ELEMENT_THEORY = SGP/SGP4

EPOCH          = 2026-03-14T22:00:01.999584
MEAN_MOTION    = 15.65103730
ECCENTRICITY   = .00014047
INCLINATION    = 42.9993
RA_OF_ASC_NODE = 217.8369
ARG_OF_PERICENTER = 285.8090
MEAN_ANOMALY   = 208.5485

EPHEMERIS_TYPE = 0
CLASSIFICATION_TYPE = U
NORAD_CAT_ID   = 67928
ELEMENT_SET_NO = 999
REV_AT_EPOCH   = 448
BSTAR          = -.21296909E-1
MEAN_MOTION_DOT = -.1911903E-1
MEAN_MOTION_DDOT = 0

CCSDS_OMM_VERS = 2.0
CREATION_DATE  = 
ORIGINATOR     = 

OBJECT_NAME    = STARLINK-36809
OBJECT_ID      = 2026-036AB
CENTER_NAME    = EARTH
REF_FRAME      = TEME
TIME_SYSTEM    = UTC
MEAN_ELEMENT_THEORY = SGP/SGP4

EPOCH          = 2026-03-14T22:00:01.999584
MEAN_MOTION    = 15.65127248
ECCENTRICITY   = .00014671
INCLINATION    = 42.9990
RA_OF_ASC_NODE = 217.8142
ARG_OF_PERICENTER = 286.7948
MEAN_ANOMALY   = 216.4615

EPHEMERIS_TYPE = 0
CLASSIFICATION_TYPE = U
NORAD_CAT_ID   = 67929
ELEMENT_SET_NO = 999
REV_AT_EPOCH   = 448
BSTAR          = -.21278577E-1
MEAN_MOTION_DOT = -.1912097E-1
MEAN_MOTION_DDOT = 0

CCSDS_OMM_VERS = 2.0
CREATION_DATE  = 
ORIGINATOR     = 

OBJECT_NAME    = STARLINK-36865
OBJECT_ID      = 2026-036AC
CENTER_NAME    = EARTH
REF_FRAME      = TEME
TIME_SYSTEM    = UTC
MEAN_ELEMENT_THEORY = SGP/SGP4

EPOCH          = 2026-03-14T22:00:01.999584
MEAN_MOTION    = 15.69731093
ECCENTRICITY   = .00013821
INCLINATION    = 42.9997
RA_OF_ASC_NODE = 217.6486
ARG_OF_PERICENTER = 277.8261
MEAN_ANOMALY   = 291.8280

EPHEMERIS_TYPE = 0
CLASSIFICATION_TYPE = U
NORAD_CAT_ID   = 67930
ELEMENT_SET_NO = 999
REV_AT_EPOCH   = 448
BSTAR          = -.1762769E-1
MEAN_MOTION_DOT = -.1914527E-1
MEAN_MOTION_DDOT = 0

CCSDS_OMM_VERS = 2.0
CREATION_DATE  = 
ORIGINATOR     = 

OBJECT_NAME    = STARLINK-36781
OBJECT_ID      = 2026-036AD
CENTER_NAME    = EARTH
REF_FRAME      = TEME
TIME_SYSTEM    = UTC
MEAN_ELEMENT_THEORY = SGP/SGP4

EPOCH          = 2026-03-14T22:00:01.999584
MEAN_MOTION    = 15.69139226
ECCENTRICITY   = .00012914
INCLINATION    = 42.9994
RA_OF_ASC_NODE = 217.6755
ARG_OF_PERICENTER = 278.3855
MEAN_ANOMALY   = 280.5546

EPHEMERIS_TYPE = 0
CLASSIFICATION_TYPE = U
NORAD_CAT_ID   = 67931
ELEMENT_SET_NO = 999
REV_AT_EPOCH   = 448
BSTAR          = -.18101163E-1
MEAN_MOTION_DOT = -.1917323E-1
MEAN_MOTION_DDOT = 0

CCSDS_OMM_VERS = 2.0
CREATION_DATE  = 
ORIGINATOR     = 

OBJECT_NAME    = STARLINK-36301
OBJECT_ID      = 2026-037A
CENTER_NAME    = EARTH
REF_FRAME      = TEME
TIME_SYSTEM    = UTC
MEAN_ELEMENT_THEORY = SGP/SGP4

EPOCH          = 2026-03-14T22:41:11.829984
MEAN_MOTION    = 15.82125543
ECCENTRICITY   = .00028822
INCLINATION    = 42.9975
RA_OF_ASC_NODE = 166.3682
ARG_OF_PERICENTER = 54.0523
MEAN_ANOMALY   = 306.0615

EPHEMERIS_TYPE = 0
CLASSIFICATION_TYPE = U
NORAD_CAT_ID   = 67932
ELEMENT_SET_NO = 999
REV_AT_EPOCH   = 408
BSTAR          = .26233178E-2
MEAN_MOTION_DOT = .594514E-2
MEAN_MOTION_DDOT = 0

CCSDS_OMM_VERS = 2.0
CREATION_DATE  = 
ORIGINATOR     = 

OBJECT_NAME    = STARLINK-36852
OBJECT_ID      = 2026-037B
CENTER_NAME    = EARTH
REF_FRAME      = TEME
TIME_SYSTEM    = UTC
MEAN_ELEMENT_THEORY = SGP/SGP4

EPOCH          = 2026-03-14T22:00:01.999584
MEAN_MOTION    = 15.77540683
ECCENTRICITY   = .00013139
INCLINATION    = 42.9994
RA_OF_ASC_NODE = 166.5553
ARG_OF_PERICENTER = 280.5447
MEAN_ANOMALY   = 272.0982

EPHEMERIS_TYPE = 0
CLASSIFICATION_TYPE = U
NORAD_CAT_ID   = 67933
ELEMENT_SET_NO = 999
REV_AT_EPOCH   = 403
BSTAR          = -.13091553E-1
MEAN_MOTION_DOT = -.1948422E-1
MEAN_MOTION_DDOT = 0

CCSDS_OMM_VERS = 2.0
CREATION_DATE  = 
ORIGINATOR     = 

OBJECT_NAME    = STARLINK-36861
OBJECT_ID      = 2026-037C
CENTER_NAME    = EARTH
REF_FRAME      = TEME
TIME_SYSTEM    = UTC
MEAN_ELEMENT_THEORY = SGP/SGP4

EPOCH          = 2026-03-14T15:04:26.969952
MEAN_MOTION    = 15.82059687
ECCENTRICITY   = .00016536
INCLINATION    = 42.9977
RA_OF_ASC_NODE = 168.2912
ARG_OF_PERICENTER = 275.3765
MEAN_ANOMALY   = 84.6918

EPHEMERIS_TYPE = 0
CLASSIFICATION_TYPE = U
NORAD_CAT_ID   = 67934
ELEMENT_SET_NO = 999
REV_AT_EPOCH   = 403
BSTAR          = .22241191E-2
MEAN_MOTION_DOT = .4967E-2
MEAN_MOTION_DDOT = 0

CCSDS_OMM_VERS = 2.0
CREATION_DATE  = 
ORIGINATOR     = 

OBJECT_NAME    = STARLINK-36860
OBJECT_ID      = 2026-037D
CENTER_NAME    = EARTH
REF_FRAME      = TEME
TIME_SYSTEM    = UTC
MEAN_ELEMENT_THEORY = SGP/SGP4

EPOCH          = 2026-03-14T16:34:16.510368
MEAN_MOTION    = 15.82145960
ECCENTRICITY   = .00015644
INCLINATION    = 42.9974
RA_OF_ASC_NODE = 167.8983
ARG_OF_PERICENTER = 303.6720
MEAN_ANOMALY   = 56.4003

EPHEMERIS_TYPE = 0
CLASSIFICATION_TYPE = U
NORAD_CAT_ID   = 67935
ELEMENT_SET_NO = 999
REV_AT_EPOCH   = 404
BSTAR          = .13985209E-2
MEAN_MOTION_DOT = .306466E-2
MEAN_MOTION_DDOT = 0

CCSDS_OMM_VERS = 2.0
CREATION_DATE  = 
ORIGINATOR     = 

OBJECT_NAME    = STARLINK-36848
OBJECT_ID      = 2026-037E
CENTER_NAME    = EARTH
REF_FRAME      = TEME
TIME_SYSTEM    = UTC
MEAN_ELEMENT_THEORY = SGP/SGP4

EPOCH          = 2026-03-14T16:32:09.365856
MEAN_MOTION    = 15.81862945
ECCENTRICITY   = .00019559
INCLINATION    = 42.9972
RA_OF_ASC_NODE = 167.8849
ARG_OF_PERICENTER = 0.4471
MEAN_ANOMALY   = 359.6402

EPHEMERIS_TYPE = 0
CLASSIFICATION_TYPE = U
NORAD_CAT_ID   = 67936
ELEMENT_SET_NO = 999
REV_AT_EPOCH   = 404
BSTAR          = -.69877644E-3
MEAN_MOTION_DOT = -.144226E-2
MEAN_MOTION_DDOT = 0

CCSDS_OMM_VERS = 2.0
CREATION_DATE  = 
ORIGINATOR     = 

OBJECT_NAME    = STARLINK-36370
OBJECT_ID      = 2026-037F
CENTER_NAME    = EARTH
REF_FRAME      = TEME
TIME_SYSTEM    = UTC
MEAN_ELEMENT_THEORY = SGP/SGP4

EPOCH          = 2026-03-14T16:33:11.867616
MEAN_MOTION    = 15.82135579
ECCENTRICITY   = .00015794
INCLINATION    = 42.9979
RA_OF_ASC_NODE = 167.8928
ARG_OF_PERICENTER = 263.6893
MEAN_ANOMALY   = 96.3799

EPHEMERIS_TYPE = 0
CLASSIFICATION_TYPE = U
NORAD_CAT_ID   = 67937
ELEMENT_SET_NO = 999
REV_AT_EPOCH   = 404
BSTAR          = .12390325E-2
MEAN_MOTION_DOT = .270175E-2
MEAN_MOTION_DDOT = 0

CCSDS_OMM_VERS = 2.0
CREATION_DATE  = 
ORIGINATOR     = 

OBJECT_NAME    = STARLINK-36371
OBJECT_ID      = 2026-037G
CENTER_NAME    = EARTH
REF_FRAME      = TEME
TIME_SYSTEM    = UTC
MEAN_ELEMENT_THEORY = SGP/SGP4

EPOCH          = 2026-03-14T15:00:07.978176
MEAN_MOTION    = 15.82131193
ECCENTRICITY   = .00013536
INCLINATION    = 42.9978
RA_OF_ASC_NODE = 168.2664
ARG_OF_PERICENTER = 282.9086
MEAN_ANOMALY   = 77.1634

EPHEMERIS_TYPE = 0
CLASSIFICATION_TYPE = U
NORAD_CAT_ID   = 67938
ELEMENT_SET_NO = 999
REV_AT_EPOCH   = 403
BSTAR          = .1280259E-2
MEAN_MOTION_DOT = .279427E-2
MEAN_MOTION_DDOT = 0

CCSDS_OMM_VERS = 2.0
CREATION_DATE  = 
ORIGINATOR     = 

OBJECT_NAME    = STARLINK-36246
OBJECT_ID      = 2026-037H
CENTER_NAME    = EARTH
REF_FRAME      = TEME
TIME_SYSTEM    = UTC
MEAN_ELEMENT_THEORY = SGP/SGP4

EPOCH          = 2026-03-14T16:29:57.665472
MEAN_MOTION    = 15.82170757
ECCENTRICITY   = .00014115
INCLINATION    = 42.9978
RA_OF_ASC_NODE = 167.8740
ARG_OF_PERICENTER = 273.0125
MEAN_ANOMALY   = 87.0585

EPHEMERIS_TYPE = 0
CLASSIFICATION_TYPE = U
NORAD_CAT_ID   = 67939
ELEMENT_SET_NO = 999
REV_AT_EPOCH   = 404
BSTAR          = .15770531E-2
MEAN_MOTION_DOT = .347735E-2
MEAN_MOTION_DDOT = 0

